[{"OBJECT_NAME":"ZACUBE-1 (TSHEPISOSAT)","OBJECT_ID":"2013-066B","EPOCH":"2026-03-09T22:19:27.469056","MEAN_MOTION":15.00329659,"ECCENTRICITY":0.00425262,"INCLINATION":97.8171,"RA_OF_ASC_NODE":30.7553,"ARG_OF_PERICENTER":219.1599,"MEAN_ANOMALY":140.6545,"EPHEMERIS_TYPE":0,"CLASSIFICATION_TYPE":"U","NORAD_CAT_ID":39417,"ELEMENT_SET_NO":999,"REV_AT_EPOCH":66584,"BSTAR":0.00042975473,"MEAN_MOTION_DOT":5.431e-5,"MEAN_MOTION_DDOT":0},{"OBJECT_NAME":"STARLINK-4662","OBJECT_ID":"2022-107AQ","EPOCH":"2026-03-09T22:26:24.057024","MEAN_MOTION":15.0884063,"ECCENTRICITY":0.0001431,"INCLINATION":53.2171,"RA_OF_ASC_NODE":262.7944,"ARG_OF_PERICENTER":86.0279,"MEAN_ANOMALY":274.0877,"EPHEMERIS_TYPE":0,"CLASSIFICATION_TYPE":"U","NORAD_CAT_ID":53738,"ELEMENT_SET_NO":999,"REV_AT_EPOCH":19448,"BSTAR":3.5655961e-5,"MEAN_MOTION_DOT":2.8e-6,"MEAN_MOTION_DDOT":0}]
